{
    "links": {
        "self": "http://www.neowsapp.com/rest/v1/neo/3367129?api_key=iIulBulltgU6a56xZRHN4H3l9WmuAYTsLGpBGhQ2"
    },
    "id": "3367129",
    "neo_reference_id": "3367129",
    "name": "(2007 BA49)",
    "designation": "2007 BA49",
    "nasa_jpl_url": "http://ssd.jpl.nasa.gov/sbdb.cgi?sstr=3367129",
    "absolute_magnitude_h": 24.8,
    "estimated_diameter": {
        "kilometers": {
            "estimated_diameter_min": 0.0291443905,
            "estimated_diameter_max": 0.0651688382
        },
        "meters": {
            "estimated_diameter_min": 29.1443904535,
            "estimated_diameter_max": 65.1688382168
        },
        "miles": {
            "estimated_diameter_min": 0.018109479,
            "estimated_diameter_max": 0.0404940262
        },
        "feet": {
            "estimated_diameter_min": 95.6180819754,
            "estimated_diameter_max": 213.8085311752
        }
    },
    "is_potentially_hazardous_asteroid": false,
    "close_approach_data": [
        {
            "close_approach_date": "2007-01-14",
            "close_approach_date_full": "2007-Jan-14 16:52",
            "epoch_date_close_approach": 1168793520000,
            "relative_velocity": {
                "kilometers_per_second": "7.1675452122",
                "kilometers_per_hour": "25803.1627638198",
                "miles_per_hour": "16033.0818851079"
            },
            "miss_distance": {
                "astronomical": "0.0651050081",
                "lunar": "25.3258481509",
                "kilometers": "9739570.538092747",
                "miles": "6051888.5025720286"
            },
            "orbiting_body": "Earth"
        }
    ],
    "orbital_data": {
        "orbit_id": "7",
        "orbit_determination_date": "2017-04-06 09:07:08",
        "first_observation_date": "2007-01-27",
        "last_observation_date": "2007-02-06",
        "data_arc_in_days": 10,
        "observations_used": 25,
        "orbit_uncertainty": "8",
        "minimum_orbit_intersection": ".0580268",
        "jupiter_tisserand_invariant": "3.065",
        "epoch_osculation": "2454130.5",
        "eccentricity": ".6142818176075537",
        "semi_major_axis": "2.696965974726939",
        "inclination": "1.082437146167663",
        "ascending_node_longitude": "140.9441402088535",
        "orbital_period": "1617.75081739132",
        "perihelion_distance": "1.040268813745947",
        "perihelion_argument": "323.9475613770868",
        "aphelion_distance": "4.35366313570793",
        "perihelion_time": "2454108.520638354798",
        "mean_anomaly": "4.891093305106172",
        "mean_motion": ".2225311810260821",
        "equinox": "J2000",
        "orbit_class": {
            "orbit_class_type": "AMO",
            "orbit_class_description": "Near-Earth asteroid orbits similar to that of 1221 Amor",
            "orbit_class_range": "1.017 AU < q (perihelion) < 1.3 AU"
        }
    },
    "is_sentry_object": false
}